CCSDS_OMM_VERS,COMMENT,CREATION_DATE,ORIGINATOR,OBJECT_NAME,OBJECT_ID,CENTER_NAME,REF_FRAME,TIME_SYSTEM,MEAN_ELEMENT_THEORY,EPOCH,MEAN_MOTION,ECCENTRICITY,INCLINATION,RA_OF_ASC_NODE,ARG_OF_PERICENTER,MEAN_ANOMALY,EPHEMERIS_TYPE,CLASSIFICATION_TYPE,NORAD_CAT_ID,ELEMENT_SET_NO,REV_AT_EPOCH,BSTAR,MEAN_MOTION_DOT,MEAN_MOTION_DDOT,SEMIMAJOR_AXIS,PERIOD,APOAPSIS,PERIAPSIS,OBJECT_TYPE,RCS_SIZE,COUNTRY_CODE,LAUNCH_DATE,SITE,DECAY_DATE,FILE,GP_ID,TLE_LINE0,TLE_LINE1,TLE_LINE2
2,GENERATED VIA SPACE-TRACK.ORG API,2019-08-13T00:30:16,18 SPCS,GALILEO-FM2,2011-060B,EARTH,TEME,UTC,SGP4,2019-08-12T03:56:14.400384,1.70475789,0.0002667,56.4208,49.8351,334.6684,27.2453,0,U,37847,999,4861,0.0,-5.7e-07,0,29600.112,844.694,23229.872,23214.083,PAYLOAD,LARGE,ESA,2011-10-21,FRGUI,,2535546,136797747,0 GALILEO-FM2,1 37847U 11060B   19224.16405556 -.00000057  00000-0  00000+0 0  9999,2 37847  56.4208  49.8351 0002667 334.6684  27.2453  1.70475789 48611
2,GENERATED VIA SPACE-TRACK.ORG API,2019-08-14T23:00:18,18 SPCS,GALILEO-FM2,2011-060B,EARTH,TEME,UTC,SGP4,2019-08-14T12:11:08.255616,1.70475846,0.0002604,56.4225,49.7705,333.9736,26.3127,0,U,37847,999,4865,0.0,-5.4e-07,0,29600.106,844.694,23229.679,23214.263,PAYLOAD,LARGE,ESA,2011-10-21,FRGUI,,2536820,136880474,0 GALILEO-FM2,1 37847U 11060B   19226.50773444 -.00000054  00000-0  00000+0 0  9990,2 37847  56.4225  49.7705 0002604 333.9736  26.3127  1.70475846 48659
2,GENERATED VIA SPACE-TRACK.ORG API,2019-08-16T22:40:18,18 SPCS,GALILEO-FM2,2011-060B,EARTH,TEME,UTC,SGP4,2019-08-16T20:25:57.668160,1.7047587,0.0002548,56.4242,49.706,333.2372,25.3902,0,U,37847,999,4868,0.0,-5e-07,0,29600.103,844.694,23229.51,23214.426,PAYLOAD,LARGE,ESA,2011-10-21,FRGUI,,2540422,137052033,0 GALILEO-FM2,1 37847U 11060B   19228.85136190 -.00000050  00000-0  00000+0 0  9997,2 37847  56.4242  49.7060 0002548 333.2372  25.3902  1.70475870 48688
2,GENERATED VIA SPACE-TRACK.ORG API,2019-08-19T18:15:23,18 SPCS,GALILEO-FM2,2011-060B,EARTH,TEME,UTC,SGP4,2019-08-19T11:55:30.285120,1.70475844,0.00025,56.4262,49.633,332.4959,209.7494,0,U,37847,999,4873,0.0,-4.2e-07,0,29600.106,844.694,23229.371,23214.571,PAYLOAD,LARGE,ESA,2011-10-21,FRGUI,,2582390,137522194,0 GALILEO-FM2,1 37847U 11060B   19231.49687830 -.00000042  00000-0  00000+0 0  9994,2 37847  56.4262  49.6330 0002500 332.4959 209.7494  1.70475844 48730
2,GENERATED VIA SPACE-TRACK.ORG API,2019-08-21T04:13:25,18 SPCS,GALILEO-FM2,2011-060B,EARTH,TEME,UTC,SGP4,2019-08-20T09:07:29.319744,1.70475825,0.0002475,56.4268,49.6086,332.0896,32.272,0,U,37847,999,4863,0.0,-3.9e-07,0,29600.108,844.694,23229.299,23214.647,PAYLOAD,LARGE,ESA,2011-10-21,FRGUI,,2583250,137611698,0 GALILEO-FM2,1 37847U 11060B   19232.38020046 -.00000039 +00000-0 +00000-0 0  9990,2 37847 056.4268 049.6086 0002475 332.0896 032.2720 01.70475825048630
2,GENERATED VIA SPACE-TRACK.ORG API,2019-08-22T04:22:06,18 SPCS,GALILEO-FM2,2011-060B,EARTH,TEME,UTC,SGP4,2019-08-21T20:10:19.293312,1.70475781,0.0002451,56.428,49.5683,331.2738,209.3097,0,U,37847,999,4865,0.0,-3.4e-07,0,29600.113,844.694,23229.233,23214.723,PAYLOAD,LARGE,ESA,2011-10-21,FRGUI,,2584055,137685937,0 GALILEO-FM2,1 37847U 11060B   19233.84050108 -.00000034 +00000-0 +00000-0 0  9999,2 37847 056.4280 049.5683 0002451 331.2738 209.3097 01.70475781048653
2,GENERATED VIA SPACE-TRACK.ORG API,2019-08-23T04:05:22,18 SPCS,GALILEO-FM2,2011-060B,EARTH,TEME,UTC,SGP4,2019-08-21T20:10:19.293312,1.70475781,0.0002451,56.428,49.5683,331.2738,209.3097,0,U,37847,999,4877,0.0,-3.4e-07,0,29600.113,844.694,23229.233,23214.723,PAYLOAD,LARGE,ESA,2011-10-21,FRGUI,,2584223,137726881,0 GALILEO-FM2,1 37847U 11060B   19233.84050108 -.00000034 +00000-0 +00000-0 0  9999,2 37847 056.4280 049.5683 0002451 331.2738 209.3097 01.70475781048776
2,GENERATED VIA SPACE-TRACK.ORG API,2019-08-24T14:40:17,18 SPCS,GALILEO-FM2,2011-060B,EARTH,TEME,UTC,SGP4,2019-08-24T04:25:08.658336,1.70475693,0.0002412,56.4298,49.5036,329.9563,208.9674,0,U,37847,999,4881,0.0,-2.7e-07,0,29600.124,844.695,23229.128,23214.849,PAYLOAD,LARGE,ESA,2011-10-21,FRGUI,,2585471,137797568,0 GALILEO-FM2,1 37847U 11060B   19236.18412799 -.00000027  00000-0  00000+0 0  9998,2 37847  56.4298  49.5036 0002412 329.9563 208.9674  1.70475693 48817
2,GENERATED VIA SPACE-TRACK.ORG API,2019-08-26T22:50:32,18 SPCS,GALILEO-FM2,2011-060B,EARTH,TEME,UTC,SGP4,2019-08-26T19:54:44.476416,1.704756,0.0002365,56.4318,49.4305,328.6197,33.9436,0,U,37847,999,4886,0.0,-2.5e-07,0,29600.134,844.695,23229.0,23214.999,PAYLOAD,LARGE,ESA,2011-10-21,FRGUI,,2586960,137962758,0 GALILEO-FM2,1 37847U 11060B   19238.82968144 -.00000025  00000-0  00000+0 0  9999,2 37847  56.4318  49.4305 0002365 328.6197  33.9436  1.70475600 48869
2,GENERATED VIA SPACE-TRACK.ORG API,2019-08-28T05:09:41,18 SPCS,GALILEO-FM2,2011-060B,EARTH,TEME,UTC,SGP4,2019-08-27T13:15:37.709856,1.7047558,0.0002346,56.432,49.4105,328.2775,117.9091,0,U,37847,999,4875,0.0,-2.6e-07,0,29600.137,844.695,23228.946,23215.057,PAYLOAD,LARGE,ESA,2011-10-21,FRGUI,,2587768,138031926,0 GALILEO-FM2,1 37847U 11060B   19239.55251979 -.00000026 +00000-0 +00000-0 0  9993,2 37847 056.4320 049.4105 0002346 328.2775 117.9091 01.70475580048752
2,GENERATED VIA SPACE-TRACK.ORG API,2019-08-29T04:45:35,18 SPCS,GALILEO-FM2,2011-060B,EARTH,TEME,UTC,SGP4,2019-08-28T00:39:11.522880,1.70475563,0.0002344,56.4326,49.3975,328.0281,49.4909,0,U,37847,999,4876,0.0,-2.7e-07,0,29600.139,844.695,23228.942,23215.065,PAYLOAD,LARGE,ESA,2011-10-21,FRGUI,,2588619,138108047,0 GALILEO-FM2,1 37847U 11060B   19240.02721670 -.00000027 +00000-0 +00000-0 0  9998,2 37847 056.4326 049.3975 0002344 328.0281 049.4909 01.70475563048769
2,GENERATED VIA SPACE-TRACK.ORG API,2019-08-29T12:00:17,18 SPCS,GALILEO-FM2,2011-060B,EARTH,TEME,UTC,SGP4,2019-08-29T04:09:31.371264,1.70475543,0.0002329,56.4334,49.3658,327.4491,33.4362,0,U,37847,999,4890,0.0,-3.2e-07,0,29600.141,844.695,23228.9,23215.112,PAYLOAD,LARGE,ESA,2011-10-21,FRGUI,,2588909,138119676,0 GALILEO-FM2,1 37847U 11060B   19241.17327976 -.00000032  00000-0  00000+0 0  9991,2 37847  56.4334  49.3658 0002329 327.4491  33.4362  1.70475543 48905
2,GENERATED VIA SPACE-TRACK.ORG API,2019-08-31T22:40:18,18 SPCS,GALILEO-FM2,2011-060B,EARTH,TEME,UTC,SGP4,2019-08-31T12:24:13.305024,1.70475529,0.0002287,56.4352,49.301,325.7619,33.4105,0,U,37847,999,4893,0.0,-4.5e-07,0,29600.143,844.696,23228.777,23215.238,PAYLOAD,LARGE,ESA,2011-10-21,FRGUI,,2590483,138268357,0 GALILEO-FM2,1 37847U 11060B   19243.51682066 -.00000045  00000-0  00000+0 0  9999,2 37847  56.4352  49.3010 0002287 325.7619  33.4105  1.70475529 48935
2,GENERATED VIA SPACE-TRACK.ORG API,2019-09-03T03:43:17,18 SPCS,GALILEO-FM2,2011-060B,EARTH,TEME,UTC,SGP4,2019-09-02T20:39:02.604384,1.70475554,0.0002251,56.4369,49.2363,323.9095,33.602,0,U,37847,999,4885,0.0,-5.3e-07,0,29600.14,844.695,23228.668,23215.342,PAYLOAD,LARGE,ESA,2011-10-21,FRGUI,,2591974,138410127,0 GALILEO-FM2,1 37847U 11060B   19245.86044681 -.00000053 +00000-0 +00000-0 0  9994,2 37847 056.4369 049.2363 0002251 323.9095 033.6020 01.70475554048859
2,GENERATED VIA SPACE-TRACK.ORG API,2019-09-03T06:40:17,18 SPCS,GALILEO-FM2,2011-060B,EARTH,TEME,UTC,SGP4,2019-09-03T03:53:47.612832,1.70475556,0.0002233,56.437,49.2279,323.2977,219.5031,0,U,37847,999,4898,0.0,-5.4e-07,0,29600.139,844.695,23228.614,23215.395,PAYLOAD,LARGE,ESA,2011-10-21,FRGUI,,2592120,138418632,0 GALILEO-FM2,1 37847U 11060B   19246.16235663 -.00000054  00000-0  00000+0 0  9990,2 37847  56.4370  49.2279 0002233 323.2977 219.5031  1.70475556 48982
2,GENERATED VIA SPACE-TRACK.ORG API,2019-09-04T04:18:46,18 SPCS,GALILEO-FM2,2011-060B,EARTH,TEME,UTC,SGP4,2019-09-03T12:42:25.065792,1.70475566,0.0002243,56.4373,49.2178,323.5417,84.5572,0,U,37847,999,4887,0.0,-5.5e-07,0,29600.138,844.695,23228.643,23215.364,PAYLOAD,LARGE,ESA,2011-10-21,FRGUI,,2592679,138462908,0 GALILEO-FM2,1 37847U 11060B   19246.52945678 -.00000055 +00000-0 +00000-0 0  9996,2 37847 056.4373 049.2178 0002243 323.5417 084.5572 01.70475566048875
2,GENERATED VIA SPACE-TRACK.ORG API,2019-09-05T03:44:40,18 SPCS,GALILEO-FM2,2011-060B,EARTH,TEME,UTC,SGP4,2019-09-04T01:09:24.446304,1.70475579,0.0002238,56.4377,49.2035,323.17,43.2937,0,U,37847,999,4888,0.0,-5.5e-07,0,29600.137,844.695,23228.626,23215.377,PAYLOAD,LARGE,ESA,2011-10-21,FRGUI,,2593400,138555686,0 GALILEO-FM2,1 37847U 11060B   19247.04819961 -.00000055 +00000-0 +00000-0 0  9999,2 37847 056.4377 049.2035 0002238 323.1700 043.2937 01.70475579048888
2,GENERATED VIA SPACE-TRACK.ORG API,2019-09-05T22:50:17,18 SPCS,GALILEO-FM2,2011-060B,EARTH,TEME,UTC,SGP4,2019-09-05T12:08:39.379776,1.7047562,0.0002217,56.4388,49.1632,322.2811,218.8764,0,U,37847,999,4902,0.0,-5.5e-07,0,29600.132,844.695,23228.559,23215.435,PAYLOAD,LARGE,ESA,2011-10-21,FRGUI,,2593953,138592670,0 GALILEO-FM2,1 37847U 11060B   19248.50601134 -.00000055  00000-0  00000+0 0  9991,2 37847  56.4388  49.1632 0002217 322.2811 218.8764  1.70475620 49024
2,GENERATED VIA SPACE-TRACK.ORG API,2019-09-08T04:17:48,18 SPCS,GALILEO-FM2,2011-060B,EARTH,TEME,UTC,SGP4,2019-09-07T20:23:24.943200,1.70475695,0.0002189,56.4404,49.0986,320.7566,218.7137,0,U,37847,999,4894,0.0,-5.4e-07,0,29600.123,844.695,23228.468,23215.509,PAYLOAD,LARGE,ESA,2011-10-21,FRGUI,,2595415,138734880,0 GALILEO-FM2,1 37847U 11060B   19250.84959425 -.00000054 +00000-0 +00000-0 0  9990,2 37847 056.4404 049.0986 0002189 320.7566 218.7137 01.70475695048947
2,GENERATED VIA SPACE-TRACK.ORG API,2019-09-08T06:30:17,18 SPCS,GALILEO-FM2,2011-060B,EARTH,TEME,UTC,SGP4,2019-09-08T03:21:42.645888,1.70475706,0.0002187,56.4406,49.0905,320.4601,37.2863,0,U,37847,999,4906,0.0,-5.3e-07,0,29600.122,844.695,23228.461,23215.514,PAYLOAD,LARGE,ESA,2011-10-21,FRGUI,,2595567,138762623,0 GALILEO-FM2,1 37847U 11060B   19251.14007692 -.00000053  00000-0  00000+0 0  9992,2 37847  56.4406  49.0905 0002187 320.4601  37.2863  1.70475706 49062
